CCSDS_OEM_VERS = 2.0
CREATION_DATE = 2026-03-17T17:00:00.000
ORIGINATOR = KEPLER-QAN
META_START
OBJECT_NAME = DEMO-SAT-5
OBJECT_ID = 2026-000E
CENTER_NAME = EARTH
REF_FRAME = EME2000
TIME_SYSTEM = UTC
META_STOP
2026-03-17T17:00:00.000 7200 30 9 0.04 7.46 0.03
